{
    "links": {
        "self": "http://www.neowsapp.com/rest/v1/neo/3325670?api_key=iIulBulltgU6a56xZRHN4H3l9WmuAYTsLGpBGhQ2"
    },
    "id": "3325670",
    "neo_reference_id": "3325670",
    "name": "(2006 EW)",
    "designation": "2006 EW",
    "nasa_jpl_url": "http://ssd.jpl.nasa.gov/sbdb.cgi?sstr=3325670",
    "absolute_magnitude_h": 23.6,
    "estimated_diameter": {
        "kilometers": {
            "estimated_diameter_min": 0.0506471459,
            "estimated_diameter_max": 0.1132504611
        },
        "meters": {
            "estimated_diameter_min": 50.6471458835,
            "estimated_diameter_max": 113.2504610618
        },
        "miles": {
            "estimated_diameter_min": 0.0314706677,
            "estimated_diameter_max": 0.0703705522
        },
        "feet": {
            "estimated_diameter_min": 166.1651821003,
            "estimated_diameter_max": 371.5566426699
        }
    },
    "is_potentially_hazardous_asteroid": false,
    "close_approach_data": [
        {
            "close_approach_date": "2006-02-27",
            "close_approach_date_full": "2006-Feb-27 10:47",
            "epoch_date_close_approach": 1141037220000,
            "relative_velocity": {
                "kilometers_per_second": "8.2255285277",
                "kilometers_per_hour": "29611.9026997696",
                "miles_per_hour": "18399.684763643"
            },
            "miss_distance": {
                "astronomical": "0.0613843851",
                "lunar": "23.8785258039",
                "kilometers": "9182973.262219737",
                "miles": "5706034.9927848906"
            },
            "orbiting_body": "Earth"
        },
        {
            "close_approach_date": "2037-12-01",
            "close_approach_date_full": "2037-Dec-01 03:54",
            "epoch_date_close_approach": 2143252440000,
            "relative_velocity": {
                "kilometers_per_second": "19.4661597188",
                "kilometers_per_hour": "70078.174987752",
                "miles_per_hour": "43543.8526750285"
            },
            "miss_distance": {
                "astronomical": "0.4656849369",
                "lunar": "181.1514404541",
                "kilometers": "69665474.651324403",
                "miles": "43288118.6515986414"
            },
            "orbiting_body": "Earth"
        },
        {
            "close_approach_date": "2040-03-16",
            "close_approach_date_full": "2040-Mar-16 11:20",
            "epoch_date_close_approach": 2215509600000,
            "relative_velocity": {
                "kilometers_per_second": "13.8026888458",
                "kilometers_per_hour": "49689.6798449261",
                "miles_per_hour": "30875.2346791987"
            },
            "miss_distance": {
                "astronomical": "0.2493781616",
                "lunar": "97.0081048624",
                "kilometers": "37306441.799875792",
                "miles": "23181148.0103262496"
            },
            "orbiting_body": "Earth"
        }
    ],
    "orbital_data": {
        "orbit_id": "8",
        "orbit_determination_date": "2017-04-06 09:08:58",
        "first_observation_date": "2006-03-04",
        "last_observation_date": "2006-03-20",
        "data_arc_in_days": 16,
        "observations_used": 49,
        "orbit_uncertainty": "8",
        "minimum_orbit_intersection": ".0295676",
        "jupiter_tisserand_invariant": "4.173",
        "epoch_osculation": "2453800.5",
        "eccentricity": ".4021391420879931",
        "semi_major_axis": "1.652972427367237",
        "inclination": "6.747343271624872",
        "ascending_node_longitude": "158.9436005684563",
        "orbital_period": "776.2414700721349",
        "perihelion_distance": ".9882475135306689",
        "perihelion_argument": "327.735621116386",
        "aphelion_distance": "2.317697341203806",
        "perihelion_time": "2453768.865717525735",
        "mean_anomaly": "14.67113279799017",
        "mean_motion": ".4637732121765483",
        "equinox": "J2000",
        "orbit_class": {
            "orbit_class_type": "APO",
            "orbit_class_description": "Near-Earth asteroid orbits which cross the Earth’s orbit similar to that of 1862 Apollo",
            "orbit_class_range": "a (semi-major axis) > 1.0 AU; q (perihelion) < 1.017 AU"
        }
    },
    "is_sentry_object": false
}